ONEWEB-0320             
1 49190U 21083E   25228.73243700  .00000081  00000+0  17226-3 0  9991
2 49190  87.9142  35.9351 0001792  93.2292 266.9045 13.18686672189859
ONEWEB-0321             
1 49191U 21083F   25229.56769890  .00000060  00000+0  11669-3 0  9999
2 49191  87.9286 334.9399 0001729  91.3664 268.7668 13.20772752198034
ONEWEB-0322             
1 49192U 21083G   25229.43534337 -.00000070  00000+0 -22625-3 0  9999
2 49192  87.8993  20.6002 0001591  83.2833 276.8477 13.13469500192335
ONEWEB-0324             
1 49193U 21083H   25228.71924536  .00000056  00000+0  10992-3 0  9990
2 49193  87.9142  35.9170 0001675  94.6292 265.5031 13.18687154189874
ONEWEB-0325             
1 49194U 21083J   25228.72255124  .00000018  00000+0  13601-4 0  9991
2 49194  87.9142  35.9335 0001808  89.1112 271.0227 13.18686211189889
ONEWEB-0326             
1 49195U 21083K   25229.19281053 -.00001778  00000+0 -45441-2 0  9995
2 49195  87.9140  35.8288 0001634 103.2860 256.8455 13.18669800191218
ONEWEB-0327             
1 49196U 21083L   25228.73724935  .00000060  00000+0  11866-3 0  9992
2 49196  87.9137  35.9475 0002102  97.5399 262.5972 13.18686840189899
ONEWEB-0328             
1 49197U 21083M   25228.66340628  .00000087  00000+0  20414-3 0  9996
2 49197  87.8990  20.6927 0001672  97.8181 262.3138 13.13469370190922
